
# Worst residual: 62.91 km
# MJD 59551.000000 (2021 Dec  3  0:00)
ZTF0LVd = ZTF0KSa = A10xMaH = A10zKLL
1 89951U 00000ABW 21337.49919926  .00000000  00000-0  00000-0 0 13251
2 89951 025.5740 313.1261 3021662 284.8878 242.2508 00.77860123    06

# Worst residual: 86.38 km
# MJD 59552.000000 (2021 Dec  4  0:00)
ZTF0LVd = ZTF0KSa = A10xMaH = A10zKLL
1 89951U 00000ABW 21338.49919926  .00000000  00000-0  00000-0 0 13252
2 89951 025.5713 313.1089 3007642 286.6559 161.7459 00.77864521    08

# Worst residual: 133.55 km
# MJD 59553.000000 (2021 Dec  5  0:00)
ZTF0LVd = ZTF0KSa = A10xMaH = A10zKLL
1 89951U 00000ABW 21339.49919926  .00000000  00000-0  00000-0 0 13253
2 89951 025.5740 313.0865 3007938 287.9402 081.5761 00.78226175    01

# Worst residual: 93.52 km
# MJD 59554.000000 (2021 Dec  6  0:00)
ZTF0LVd = ZTF0KSa = A10xMaH = A10zKLL
1 89951U 00000ABW 21340.49919926  .00000000  00000-0  00000-0 0 13255
2 89951 025.5763 313.0596 2988033 289.5959 000.5970 00.78355188    05

# Worst residual: 126.04 km
# MJD 59555.000000 (2021 Dec  7  0:00)
ZTF0LVd = ZTF0KSa = A10xMaH = A10zKLL
1 89951U 00000ABW 21341.49919926  .00000000  00000-0  00000-0 0 13256
2 89951 025.5684 313.0449 2984106 290.9707 279.9815 00.78010347    03

# Worst residual: 43.37 km
# MJD 59556.000000 (2021 Dec  8  0:00)
ZTF0LVd = ZTF0KSa = A10xMaH = A10zKLL
1 89951U 00000ABW 21342.49919926  .00000000  00000-0  00000-0 0 13257
2 89951 025.5660 313.0316 2957496 292.5491 199.5425 00.77795709    05

# Worst residual: 90.64 km
# MJD 59557.000000 (2021 Dec  9  0:00)
ZTF0LVd = ZTF0KSa = A10xMaH = A10zKLL
1 89951U 00000ABW 21343.49919926  .00000000  00000-0  00000-0 0 13258
2 89951 025.5607 312.9898 2964147 294.2049 119.1056 00.78019619    06

# Worst residual: 97.37 km
# MJD 59558.000000 (2021 Dec 10  0:00)
ZTF0LVd = ZTF0KSa = A10xMaH = A10zKLL
1 89951U 00000ABW 21344.49919926  .00000000  00000-0  00000-0 0 13259
2 89951 025.5609 312.9834 2948453 295.5227 038.6399 00.78363370    03

# Worst residual: 109.20 km
# MJD 59559.000000 (2021 Dec 11  0:00)
ZTF0LVd = ZTF0KSa = A10xMaH = A10zKLL
1 89951U 00000ABW 21345.49919926  .00000000  00000-0  00000-0 0 13250
2 89951 025.5653 312.9833 2948275 297.2313 317.5094 00.78202459    09

# Worst residual: 66.41 km
# MJD 59560.000000 (2021 Dec 12  0:00)
ZTF0LVd = ZTF0KSa = A10xMaH = A10zKLL
1 89951U 00000ABW 21346.49919926  .00000000  00000-0  00000-0 0 13251
2 89951 025.5579 312.9699 2930530 298.5411 237.1471 00.77842914    05

# Worst residual: 86.25 km
# MJD 59561.000000 (2021 Dec 13  0:00)
ZTF0LVd = ZTF0KSa = A10xMaH = A10zKLL
1 89951U 00000ABW 21347.49919926  .00000000  00000-0  00000-0 0 13252
2 89951 025.5540 312.9662 2923234 300.3851 156.4904 00.77846272    01

# Worst residual: 141.26 km
# MJD 59562.000000 (2021 Dec 14  0:00)
ZTF0LVd = ZTF0KSa = A10xMaH = A10zKLL
1 89951U 00000ABW 21348.49919926  .00000000  00000-0  00000-0 0 13253
2 89951 025.5504 312.9570 2929698 301.6724 076.2576 00.78222412    01

# Worst residual: 104.60 km
# MJD 59563.000000 (2021 Dec 15  0:00)
ZTF0LVd = ZTF0KSa = A10xMaH = A10zKLL
1 89951U 00000ABW 21349.49919926  .00000000  00000-0  00000-0 0 13254
2 89951 025.5424 312.9503 2917686 303.4256 355.1177 00.78350200    05

# Worst residual: 119.20 km
# MJD 59564.000000 (2021 Dec 16  0:00)
ZTF0LVd = ZTF0KSa = A10xMaH = A10zKLL
1 89951U 00000ABW 21350.49919926  .00000000  00000-0  00000-0 0 13256
2 89951 025.5416 312.9491 2921239 304.8235 274.4234 00.78000267    05

# Worst residual: 40.24 km
# MJD 59565.000000 (2021 Dec 17  0:00)
ZTF0LVd = ZTF0KSa = A10xMaH = A10zKLL
1 89951U 00000ABW 21351.49919926  .00000000  00000-0  00000-0 0 13257
2 89951 025.5379 312.9471 2901186 306.4814 193.8543 00.77774257    04

# Worst residual: 98.36 km
# MJD 59566.000000 (2021 Dec 18  0:00)
ZTF0LVd = ZTF0KSa = A10xMaH = A10zKLL
1 89951U 00000ABW 21352.49919926  .00000000  00000-0  00000-0 0 13258
2 89951 025.5334 312.9409 2916735 308.1254 113.3817 00.78019926    06

# Worst residual: 97.38 km
# MJD 59567.000000 (2021 Dec 19  0:00)
ZTF0LVd = ZTF0KSa = A10xMaH = A10zKLL
1 89951U 00000ABW 21353.49919926  .00000000  00000-0  00000-0 0 13259
2 89951 025.5254 312.9403 2907453 309.5530 032.7565 00.78359212    09

# Worst residual: 115.86 km
# MJD 59568.000000 (2021 Dec 20  0:00)
ZTF0LVd = ZTF0KSa = A10xMaH = A10zKLL
1 89951U 00000ABW 21354.49919926  .00000000  00000-0  00000-0 0 13250
2 89951 025.5178 312.9548 2915777 311.3187 311.5316 00.78200128    04

# Worst residual: 75.83 km
# MJD 59569.000000 (2021 Dec 21  0:00)
ZTF0LVd = ZTF0KSa = A10xMaH = A10zKLL
1 89951U 00000ABW 21355.49919926  .00000000  00000-0  00000-0 0 13251
2 89951 025.5092 312.9584 2901529 312.6478 231.1047 00.77825530    03

# Worst residual: 87.44 km
# MJD 59570.000000 (2021 Dec 22  0:00)
ZTF0LVd = ZTF0KSa = A10xMaH = A10zKLL
1 89951U 00000ABW 21356.49919926  .00000000  00000-0  00000-0 0 13252
2 89951 025.5039 312.9561 2904854 314.5457 150.3911 00.77843295    01

# Worst residual: 135.57 km
# MJD 59571.000000 (2021 Dec 23  0:00)
ZTF0LVd = ZTF0KSa = A10xMaH = A10zKLL
1 89951U 00000ABW 21357.49919926  .00000000  00000-0  00000-0 0 13253
2 89951 025.4914 312.9566 2916758 315.8675 070.0905 00.78227389    01

# Worst residual: 101.91 km
# MJD 59572.000000 (2021 Dec 24  0:00)
ZTF0LVd = ZTF0KSa = A10xMaH = A10zKLL
1 89951U 00000ABW 21358.49919926  .00000000  00000-0  00000-0 0 13254
2 89951 025.4732 312.9662 2913830 317.6879 348.8253 00.78344730    02

# Worst residual: 117.71 km
# MJD 59573.000000 (2021 Dec 25  0:00)
ZTF0LVd = ZTF0KSa = A10xMaH = A10zKLL
1 89951U 00000ABW 21359.49919926  .00000000  00000-0  00000-0 0 13255
2 89951 025.4649 312.9846 2922681 319.0703 268.1183 00.77988717    03

# Worst residual: 40.24 km
# MJD 59574.000000 (2021 Dec 26  0:00)
ZTF0LVd = ZTF0KSa = A10xMaH = A10zKLL
1 89951U 00000ABW 21360.49919926  .00000000  00000-0  00000-0 0 13257
2 89951 025.4567 312.9923 2910923 320.7836 187.4814 00.77771681    04

# Worst residual: 93.75 km
# MJD 59575.000000 (2021 Dec 27  0:00)
ZTF0LVd = ZTF0KSa = A10xMaH = A10zKLL
1 89951U 00000ABW 21361.49919926  .00000000  00000-0  00000-0 0 13258
2 89951 025.4469 312.9736 2935029 322.4249 107.0091 00.78026536    06

# Worst residual: 98.72 km
# MJD 59576.000000 (2021 Dec 28  0:00)
ZTF0LVd = ZTF0KSa = A10xMaH = A10zKLL
1 89951U 00000ABW 21362.49919926  .00000000  00000-0  00000-0 0 13259
2 89951 025.4241 312.9962 2931803 323.8700 026.3319 00.78368311    04

# Worst residual: 121.93 km
# MJD 59577.000000 (2021 Dec 29  0:00)
ZTF0LVd = ZTF0KSa = A10xMaH = A10zKLL
1 89951U 00000ABW 21363.49919926  .00000000  00000-0  00000-0 0 13250
2 89951 025.4079 313.0129 2950055 325.5843 305.1490 00.78193893    06

# Worst residual: 77.29 km
# MJD 59578.000000 (2021 Dec 30  0:00)
ZTF0LVd = ZTF0KSa = A10xMaH = A10zKLL
1 89951U 00000ABW 21364.49919926  .00000000  00000-0  00000-0 0 13251
2 89951 025.3927 313.0354 2943498 326.9254 224.6937 00.77826460    04
